{"fetched_at":"2026-07-19T07:04:52.450Z","source":"https://celestrak.org/NORAD/elements/gp.php?GROUP=qianfan&FORMAT=JSON","constellation":"qianfan","records":[{"OBJECT_NAME":"QIANFAN-70","OBJECT_ID":"2025-016R","EPOCH":"2026-07-18T19:55:28.924032","CLASSIFICATION_TYPE":"U","MEAN_MOTION":13.51017321,"ECCENTRICITY":0.0017454,"INCLINATION":88.9708,"RA_OF_ASC_NODE":80.4829,"ARG_OF_PERICENTER":66.7811,"MEAN_ANOMALY":293.5176,"EPHEMERIS_TYPE":0,"NORAD_CAT_ID":62800,"ELEMENT_SET_NO":999,"REV_AT_EPOCH":7668,"BSTAR":0.000091911,"MEAN_MOTION_DOT":7.2e-7,"MEAN_MOTION_DDOT":0},{"OBJECT_NAME":"QIANFAN-71","OBJECT_ID":"2025-016S","EPOCH":"2026-07-18T19:49:43.953024","CLASSIFICATION_TYPE":"U","MEAN_MOTION":13.51021343,"ECCENTRICITY":0.0017812,"INCLINATION":88.9702,"RA_OF_ASC_NODE":80.4496,"ARG_OF_PERICENTER":78.4398,"MEAN_ANOMALY":281.8751,"EPHEMERIS_TYPE":0,"NORAD_CAT_ID":62801,"ELEMENT_SET_NO":999,"REV_AT_EPOCH":7668,"BSTAR":0.00010406,"MEAN_MOTION_DOT":7.9e-7,"MEAN_MOTION_DDOT":0},{"OBJECT_NAME":"QIANFAN-72","OBJECT_ID":"2025-016T","EPOCH":"2026-07-18T20:13:12.165024","CLASSIFICATION_TYPE":"U","MEAN_MOTION":13.51014836,"ECCENTRICITY":0.0021065,"INCLINATION":88.9692,"RA_OF_ASC_NODE":80.44,"ARG_OF_PERICENTER":84.8993,"MEAN_ANOMALY":275.4561,"EPHEMERIS_TYPE":0,"NORAD_CAT_ID":62802,"ELEMENT_SET_NO":999,"REV_AT_EPOCH":7667,"BSTAR":0.00011525,"MEAN_MOTION_DOT":8.7e-7,"MEAN_MOTION_DDOT":0},{"OBJECT_NAME":"QIANFAN-73","OBJECT_ID":"2025-046A","EPOCH":"2026-07-18T19:05:24.325152","CLASSIFICATION_TYPE":"U","MEAN_MOTION":13.51015332,"ECCENTRICITY":0.0014465,"INCLINATION":88.9721,"RA_OF_ASC_NODE":297.3997,"ARG_OF_PERICENTER":205.0595,"MEAN_ANOMALY":154.9856,"EPHEMERIS_TYPE":0,"NORAD_CAT_ID":63159,"ELEMENT_SET_NO":999,"REV_AT_EPOCH":7685,"BSTAR":0.0000188,"MEAN_MOTION_DOT":2.4e-7,"MEAN_MOTION_DDOT":0},{"OBJECT_NAME":"QIANFAN-74","OBJECT_ID":"2025-046B","EPOCH":"2026-07-18T18:41:57.028128","CLASSIFICATION_TYPE":"U","MEAN_MOTION":13.51023519,"ECCENTRICITY":0.0002534,"INCLINATION":88.9723,"RA_OF_ASC_NODE":297.2911,"ARG_OF_PERICENTER":104.9442,"MEAN_ANOMALY":255.199,"EPHEMERIS_TYPE":0,"NORAD_CAT_ID":63160,"ELEMENT_SET_NO":999,"REV_AT_EPOCH":7691,"BSTAR":0.00016463,"MEAN_MOTION_DOT":0.00000118,"MEAN_MOTION_DDOT":0},{"OBJECT_NAME":"QIANFAN-75","OBJECT_ID":"2025-046C","EPOCH":"2026-07-18T18:24:05.880672","CLASSIFICATION_TYPE":"U","MEAN_MOTION":13.51015827,"ECCENTRICITY":0.0015431,"INCLINATION":88.9724,"RA_OF_ASC_NODE":297.529,"ARG_OF_PERICENTER":208.6421,"MEAN_ANOMALY":151.3884,"EPHEMERIS_TYPE":0,"NORAD_CAT_ID":63161,"ELEMENT_SET_NO":999,"REV_AT_EPOCH":7678,"BSTAR":0.00012416,"MEAN_MOTION_DOT":9.2e-7,"MEAN_MOTION_DDOT":0},{"OBJECT_NAME":"QIANFAN-76","OBJECT_ID":"2025-046D","EPOCH":"2026-07-18T20:04:45.219072","CLASSIFICATION_TYPE":"U","MEAN_MOTION":13.51015055,"ECCENTRICITY":0.0012965,"INCLINATION":88.9724,"RA_OF_ASC_NODE":297.5016,"ARG_OF_PERICENTER":207.4469,"MEAN_ANOMALY":152.5999,"EPHEMERIS_TYPE":0,"NORAD_CAT_ID":63162,"ELEMENT_SET_NO":999,"REV_AT_EPOCH":7680,"BSTAR":0.00017441,"MEAN_MOTION_DOT":0.00000125,"MEAN_MOTION_DDOT":0},{"OBJECT_NAME":"QIANFAN-77","OBJECT_ID":"2025-046E","EPOCH":"2026-07-18T18:35:06.213408","CLASSIFICATION_TYPE":"U","MEAN_MOTION":13.9622321,"ECCENTRICITY":0.001729,"INCLINATION":88.9726,"RA_OF_ASC_NODE":293.7192,"ARG_OF_PERICENTER":117.815,"MEAN_ANOMALY":242.4782,"EPHEMERIS_TYPE":0,"NORAD_CAT_ID":63163,"ELEMENT_SET_NO":999,"REV_AT_EPOCH":7887,"BSTAR":0.0001444,"MEAN_MOTION_DOT":0.00000212,"MEAN_MOTION_DDOT":0},{"OBJECT_NAME":"QIANFAN-78","OBJECT_ID":"2025-046F","EPOCH":"2026-07-18T19:17:26.486592","CLASSIFICATION_TYPE":"U","MEAN_MOTION":13.51010301,"ECCENTRICITY":0.001424,"INCLINATION":88.9724,"RA_OF_ASC_NODE":297.3669,"ARG_OF_PERICENTER":210.5418,"MEAN_ANOMALY":149.4905,"EPHEMERIS_TYPE":0,"NORAD_CAT_ID":63164,"ELEMENT_SET_NO":999,"REV_AT_EPOCH":7687,"BSTAR":0.00014835,"MEAN_MOTION_DOT":0.00000108,"MEAN_MOTION_DDOT":0},{"OBJECT_NAME":"QIANFAN-79","OBJECT_ID":"2025-046G","EPOCH":"2026-07-18T19:58:48.839808","CLASSIFICATION_TYPE":"U","MEAN_MOTION":13.51020367,"ECCENTRICITY":0.0014095,"INCLINATION":88.9727,"RA_OF_ASC_NODE":297.4793,"ARG_OF_PERICENTER":208.812,"MEAN_ANOMALY":151.2254,"EPHEMERIS_TYPE":0,"NORAD_CAT_ID":63165,"ELEMENT_SET_NO":999,"REV_AT_EPOCH":7682,"BSTAR":0.00015578,"MEAN_MOTION_DOT":0.00000113,"MEAN_MOTION_DDOT":0},{"OBJECT_NAME":"QIANFAN-80","OBJECT_ID":"2025-046H","EPOCH":"2026-07-18T18:36:00.367200","CLASSIFICATION_TYPE":"U","MEAN_MOTION":13.5101741,"ECCENTRICITY":0.0012778,"INCLINATION":88.9724,"RA_OF_ASC_NODE":297.1863,"ARG_OF_PERICENTER":212.9129,"MEAN_ANOMALY":147.1228,"EPHEMERIS_TYPE":0,"NORAD_CAT_ID":63166,"ELEMENT_SET_NO":999,"REV_AT_EPOCH":7697,"BSTAR":0.00017104,"MEAN_MOTION_DOT":0.00000123,"MEAN_MOTION_DDOT":0},{"OBJECT_NAME":"QIANFAN-81","OBJECT_ID":"2025-046J","EPOCH":"2026-07-18T19:52:45.723072","CLASSIFICATION_TYPE":"U","MEAN_MOTION":13.51024828,"ECCENTRICITY":0.0014468,"INCLINATION":88.9724,"RA_OF_ASC_NODE":297.2483,"ARG_OF_PERICENTER":202.522,"MEAN_ANOMALY":157.5298,"EPHEMERIS_TYPE":0,"NORAD_CAT_ID":63167,"ELEMENT_SET_NO":999,"REV_AT_EPOCH":7693,"BSTAR":0.00015908,"MEAN_MOTION_DOT":0.00000115,"MEAN_MOTION_DDOT":0},{"OBJECT_NAME":"QIANFAN-82","OBJECT_ID":"2025-046K","EPOCH":"2026-07-18T18:53:34.884384","CLASSIFICATION_TYPE":"U","MEAN_MOTION":13.51019371,"ECCENTRICITY":0.0012069,"INCLINATION":88.9724,"RA_OF_ASC_NODE":297.2967,"ARG_OF_PERICENTER":208.1875,"MEAN_ANOMALY":151.8624,"EPHEMERIS_TYPE":0,"NORAD_CAT_ID":63168,"ELEMENT_SET_NO":999,"REV_AT_EPOCH":7691,"BSTAR":0.00017091,"MEAN_MOTION_DOT":0.00000122,"MEAN_MOTION_DDOT":0},{"OBJECT_NAME":"QIANFAN-83","OBJECT_ID":"2025-046L","EPOCH":"2026-07-18T19:33:16.632576","CLASSIFICATION_TYPE":"U","MEAN_MOTION":13.62052052,"ECCENTRICITY":0.0014476,"INCLINATION":88.9725,"RA_OF_ASC_NODE":296.6407,"ARG_OF_PERICENTER":182.0837,"MEAN_ANOMALY":178.0263,"EPHEMERIS_TYPE":0,"NORAD_CAT_ID":63169,"ELEMENT_SET_NO":999,"REV_AT_EPOCH":7728,"BSTAR":0.00015908,"MEAN_MOTION_DOT":0.00000135,"MEAN_MOTION_DDOT":0},{"OBJECT_NAME":"QIANFAN-84","OBJECT_ID":"2025-046M","EPOCH":"2026-07-18T19:35:17.115648","CLASSIFICATION_TYPE":"U","MEAN_MOTION":13.510452,"ECCENTRICITY":0.001524,"INCLINATION":88.9724,"RA_OF_ASC_NODE":297.4263,"ARG_OF_PERICENTER":206.4253,"MEAN_ANOMALY":153.6122,"EPHEMERIS_TYPE":0,"NORAD_CAT_ID":63170,"ELEMENT_SET_NO":999,"REV_AT_EPOCH":7684,"BSTAR":0.000060799,"MEAN_MOTION_DOT":5.1e-7,"MEAN_MOTION_DDOT":0},{"OBJECT_NAME":"QIANFAN-85","OBJECT_ID":"2025-046N","EPOCH":"2026-07-18T19:29:07.232064","CLASSIFICATION_TYPE":"U","MEAN_MOTION":13.51017041,"ECCENTRICITY":0.0012621,"INCLINATION":88.9723,"RA_OF_ASC_NODE":297.2968,"ARG_OF_PERICENTER":207.2642,"MEAN_ANOMALY":152.7848,"EPHEMERIS_TYPE":0,"NORAD_CAT_ID":63171,"ELEMENT_SET_NO":999,"REV_AT_EPOCH":7691,"BSTAR":0.00015832,"MEAN_MOTION_DOT":0.00000114,"MEAN_MOTION_DDOT":0},{"OBJECT_NAME":"QIANFAN-86","OBJECT_ID":"2025-046P","EPOCH":"2026-07-18T19:40:58.750752","CLASSIFICATION_TYPE":"U","MEAN_MOTION":13.51024562,"ECCENTRICITY":0.001032,"INCLINATION":88.9725,"RA_OF_ASC_NODE":297.1633,"ARG_OF_PERICENTER":209.6158,"MEAN_ANOMALY":150.441,"EPHEMERIS_TYPE":0,"NORAD_CAT_ID":63172,"ELEMENT_SET_NO":999,"REV_AT_EPOCH":7699,"BSTAR":0.00017287,"MEAN_MOTION_DOT":0.00000124,"MEAN_MOTION_DDOT":0},{"OBJECT_NAME":"QIANFAN-87","OBJECT_ID":"2025-046Q","EPOCH":"2026-07-18T18:59:39.596064","CLASSIFICATION_TYPE":"U","MEAN_MOTION":13.51010216,"ECCENTRICITY":0.0011052,"INCLINATION":88.9722,"RA_OF_ASC_NODE":297.2698,"ARG_OF_PERICENTER":205.1828,"MEAN_ANOMALY":154.8785,"EPHEMERIS_TYPE":0,"NORAD_CAT_ID":63173,"ELEMENT_SET_NO":999,"REV_AT_EPOCH":7692,"BSTAR":0.00016993,"MEAN_MOTION_DOT":0.00000122,"MEAN_MOTION_DDOT":0},{"OBJECT_NAME":"QIANFAN-88","OBJECT_ID":"2025-046R","EPOCH":"2026-07-18T19:23:19.529088","CLASSIFICATION_TYPE":"U","MEAN_MOTION":13.51017779,"ECCENTRICITY":0.0011147,"INCLINATION":88.9724,"RA_OF_ASC_NODE":297.228,"ARG_OF_PERICENTER":214.4383,"MEAN_ANOMALY":145.6047,"EPHEMERIS_TYPE":0,"NORAD_CAT_ID":63174,"ELEMENT_SET_NO":999,"REV_AT_EPOCH":7695,"BSTAR":0.00015165,"MEAN_MOTION_DOT":0.0000011,"MEAN_MOTION_DDOT":0},{"OBJECT_NAME":"QIANFAN-89","OBJECT_ID":"2025-046S","EPOCH":"2026-07-18T18:29:49.371648","CLASSIFICATION_TYPE":"U","MEAN_MOTION":13.51024967,"ECCENTRICITY":0.0016053,"INCLINATION":88.9724,"RA_OF_ASC_NODE":297.4207,"ARG_OF_PERICENTER":207.5128,"MEAN_ANOMALY":152.5175,"EPHEMERIS_TYPE":0,"NORAD_CAT_ID":63175,"ELEMENT_SET_NO":999,"REV_AT_EPOCH":7684,"BSTAR":0.00016077,"MEAN_MOTION_DOT":0.00000116,"MEAN_MOTION_DDOT":0},{"OBJECT_NAME":"QIANFAN-90","OBJECT_ID":"2025-046T","EPOCH":"2026-07-18T19:11:19.181184","CLASSIFICATION_TYPE":"U","MEAN_MOTION":13.51017423,"ECCENTRICITY":0.0013066,"INCLINATION":88.9725,"RA_OF_ASC_NODE":297.3907,"ARG_OF_PERICENTER":204.1119,"MEAN_ANOMALY":155.9422,"EPHEMERIS_TYPE":0,"NORAD_CAT_ID":63176,"ELEMENT_SET_NO":999,"REV_AT_EPOCH":7686,"BSTAR":0.00015822,"MEAN_MOTION_DOT":0.00000114,"MEAN_MOTION_DDOT":0},{"OBJECT_NAME":"QIANFAN-91","OBJECT_ID":"2025-233A","EPOCH":"2026-07-18T19:58:04.575360","CLASSIFICATION_TYPE":"U","MEAN_MOTION":13.51015142,"ECCENTRICITY":0.000211,"INCLINATION":88.9981,"RA_OF_ASC_NODE":39.9875,"ARG_OF_PERICENTER":95.1198,"MEAN_ANOMALY":265.0194,"EPHEMERIS_TYPE":0,"NORAD_CAT_ID":66033,"ELEMENT_SET_NO":999,"REV_AT_EPOCH":3745,"BSTAR":0.0000048416,"MEAN_MOTION_DOT":1.5e-7,"MEAN_MOTION_DDOT":0},{"OBJECT_NAME":"QIANFAN-92","OBJECT_ID":"2025-233B","EPOCH":"2026-07-18T20:09:52.663968","CLASSIFICATION_TYPE":"U","MEAN_MOTION":13.51013533,"ECCENTRICITY":0.000198,"INCLINATION":88.9965,"RA_OF_ASC_NODE":39.9532,"ARG_OF_PERICENTER":89.6094,"MEAN_ANOMALY":270.5284,"EPHEMERIS_TYPE":0,"NORAD_CAT_ID":66034,"ELEMENT_SET_NO":999,"REV_AT_EPOCH":3745,"BSTAR":0.000027656,"MEAN_MOTION_DOT":3e-7,"MEAN_MOTION_DDOT":0}]}
